CSS (TIANHE)            
1 48274U 21035A   23291.63271144  .00022010  00000+0  25194-3 0  9999
2 48274  41.4702 124.3080 0001922 136.0859 224.0133 15.61603940141139
